[
  {
    "CCSDS_OMM_VERS": "3.0",
    "COMMENT": "GENERATED VIA SPACE-TRACK.ORG API",
    "CREATION_DATE": "2025-02-21T03:03:55",
    "ORIGINATOR": "18 SPCS",
    "OBJECT_NAME": "IRIDIUM 33 DEB",
    "OBJECT_ID": "1997-051CV",
    "CENTER_NAME": "EARTH",
    "REF_FRAME": "TEME",
    "TIME_SYSTEM": "UTC",
    "MEAN_ELEMENT_THEORY": "SGP4",
    "EPOCH": "2025-02-20T17:10:48.930240",
    "MEAN_MOTION": "15.99049353",
    "ECCENTRICITY": "0.00201660",
    "INCLINATION": "86.3210",
    "RA_OF_ASC_NODE": "159.8471",
    "ARG_OF_PERICENTER": "316.6637",
    "MEAN_ANOMALY": "43.3062",
    "EPHEMERIS_TYPE": "0",
    "CLASSIFICATION_TYPE": "U",
    "NORAD_CAT_ID": "34086",
    "ELEMENT_SET_NO": "999",
    "REV_AT_EPOCH": "4933",
    "BSTAR": "0.02352300000000",
    "MEAN_MOTION_DOT": "0.07403478",
    "MEAN_MOTION_DDOT": "0.1577300000000",
    "SEMIMAJOR_AXIS": "6655.192",
    "PERIOD": "90.054",
    "APOAPSIS": "290.478",
    "PERIAPSIS": "263.636",
    "OBJECT_TYPE": "DEBRIS",
    "RCS_SIZE": "SMALL",
    "COUNTRY_CODE": "US",
    "LAUNCH_DATE": "1997-09-14",
    "SITE": "TTMTR",
    "DECAY_DATE": "2025-02-25",
    "FILE": "4647213",
    "GP_ID": "281311623",
    "TLE_LINE0": "0 IRIDIUM 33 DEB",
    "TLE_LINE1": "1 34086U 97051CV  25051.71584410  .07403478  15773+0  23523-1 0  9997",
    "TLE_LINE2": "2 34086  86.3210 159.8471 0020166 316.6637  43.3062 15.99049353 49330"
  },
  {
    "CCSDS_OMM_VERS": "3.0",
    "COMMENT": "GENERATED VIA SPACE-TRACK.ORG API",
    "CREATION_DATE": "2012-10-21T09:38:57",
    "ORIGINATOR": "18 SPCS",
    "OBJECT_NAME": "IRIDIUM 33 DEB",
    "OBJECT_ID": "1997-051CW",
    "CENTER_NAME": "EARTH",
    "REF_FRAME": "TEME",
    "TIME_SYSTEM": "UTC",
    "MEAN_ELEMENT_THEORY": "SGP4",
    "EPOCH": "2012-10-18T15:56:22.362144",
    "MEAN_MOTION": "15.63664150",
    "ECCENTRICITY": "0.00187240",
    "INCLINATION": "86.2547",
    "RA_OF_ASC_NODE": "254.4419",
    "ARG_OF_PERICENTER": "157.3289",
    "MEAN_ANOMALY": "203.3568",
    "EPHEMERIS_TYPE": "0",
    "CLASSIFICATION_TYPE": "U",
    "NORAD_CAT_ID": "34087",
    "ELEMENT_SET_NO": "999",
    "REV_AT_EPOCH": "19371",
    "BSTAR": "0.05542100000000",
    "MEAN_MOTION_DOT": "0.06131239",
    "MEAN_MOTION_DDOT": "0.0000000000000",
    "SEMIMAJOR_AXIS": "6755.224",
    "PERIOD": "92.091",
    "APOAPSIS": "389.738",
    "PERIAPSIS": "364.441",
    "OBJECT_TYPE": "DEBRIS",
    "RCS_SIZE": "SMALL",
    "COUNTRY_CODE": "US",
    "LAUNCH_DATE": "1997-09-14",
    "SITE": "TTMTR",
    "DECAY_DATE": "2012-10-20",
    "FILE": "1371111",
    "GP_ID": "91140710",
    "TLE_LINE0": "0 IRIDIUM 33 DEB",
    "TLE_LINE1": "1 34087U 97051CW  12292.66414771  .06131239  00000-0  55421-1 0  9999",
    "TLE_LINE2": "2 34087 086.2547 254.4419 0018724 157.3289 203.3568 15.63664150193717"
  },
  {
    "CCSDS_OMM_VERS": "3.0",
    "COMMENT": "GENERATED VIA SPACE-TRACK.ORG API",
    "CREATION_DATE": "2025-11-26T23:16:29",
    "ORIGINATOR": "18 SPCS",
    "OBJECT_NAME": "IRIDIUM 33 DEB",
    "OBJECT_ID": "1997-051CX",
    "CENTER_NAME": "EARTH",
    "REF_FRAME": "TEME",
    "TIME_SYSTEM": "UTC",
    "MEAN_ELEMENT_THEORY": "SGP4",
    "EPOCH": "2025-11-26T17:23:38.431968",
    "MEAN_MOTION": "14.90226435",
    "ECCENTRICITY": "0.00048150",
    "INCLINATION": "86.3853",
    "RA_OF_ASC_NODE": "38.0742",
    "ARG_OF_PERICENTER": "238.0519",
    "MEAN_ANOMALY": "246.4522",
    "EPHEMERIS_TYPE": "0",
    "CLASSIFICATION_TYPE": "U",
    "NORAD_CAT_ID": "34088",
    "ELEMENT_SET_NO": "999",
    "REV_AT_EPOCH": "88503",
    "BSTAR": "0.00299890000000",
    "MEAN_MOTION_DOT": "0.00029190",
    "MEAN_MOTION_DDOT": "0.0000000000000",
    "SEMIMAJOR_AXIS": "6975.366",
    "PERIOD": "96.630",
    "APOAPSIS": "600.590",
    "PERIAPSIS": "593.872",
    "OBJECT_TYPE": "DEBRIS",
    "RCS_SIZE": "MEDIUM",
    "COUNTRY_CODE": "US",
    "LAUNCH_DATE": "1997-09-14",
    "SITE": "TTMTR",
    "DECAY_DATE": null,
    "FILE": "4903482",
    "GP_ID": "303674525",
    "TLE_LINE0": "0 IRIDIUM 33 DEB",
    "TLE_LINE1": "1 34088U 97051CX  25330.72475037  .00029190  00000-0  29989-2 0  9993",
    "TLE_LINE2": "2 34088  86.3853  38.0742 0004815 238.0519 246.4522 14.90226435885033"
  },
  {
    "CCSDS_OMM_VERS": "3.0",
    "COMMENT": "GENERATED VIA SPACE-TRACK.ORG API",
    "CREATION_DATE": "2011-01-11T18:09:55",
    "ORIGINATOR": "18 SPCS",
    "OBJECT_NAME": "IRIDIUM 33 DEB",
    "OBJECT_ID": "1997-051CY",
    "CENTER_NAME": "EARTH",
    "REF_FRAME": "TEME",
    "TIME_SYSTEM": "UTC",
    "MEAN_ELEMENT_THEORY": "SGP4",
    "EPOCH": "2011-01-11T05:52:32.275200",
    "MEAN_MOTION": "15.61084456",
    "ECCENTRICITY": "0.00691190",
    "INCLINATION": "86.2495",
    "RA_OF_ASC_NODE": "172.2195",
    "ARG_OF_PERICENTER": "300.7060",
    "MEAN_ANOMALY": "58.7284",
    "EPHEMERIS_TYPE": "0",
    "CLASSIFICATION_TYPE": "U",
    "NORAD_CAT_ID": "34089",
    "ELEMENT_SET_NO": "999",
    "REV_AT_EPOCH": "10127",
    "BSTAR": "0.10402000000000",
    "MEAN_MOTION_DOT": "0.12105129",
    "MEAN_MOTION_DDOT": "0.0000000000000",
    "SEMIMAJOR_AXIS": "6762.664",
    "PERIOD": "92.243",
    "APOAPSIS": "431.272",
    "PERIAPSIS": "337.786",
    "OBJECT_TYPE": "DEBRIS",
    "RCS_SIZE": "SMALL",
    "COUNTRY_CODE": "US",
    "LAUNCH_DATE": "1997-09-14",
    "SITE": "TTMTR",
    "DECAY_DATE": "2011-01-12",
    "FILE": "1023874",
    "GP_ID": "81251634",
    "TLE_LINE0": "0 IRIDIUM 33 DEB",
    "TLE_LINE1": "1 34089U 97051CY  11011.24481800  .12105129  00000-0  10402+0 0  9994",
    "TLE_LINE2": "2 34089 086.2495 172.2195 0069119 300.7060 058.7284 15.61084456101274"
  },
  {
    "CCSDS_OMM_VERS": "3.0",
    "COMMENT": "GENERATED VIA SPACE-TRACK.ORG API",
    "CREATION_DATE": "2022-10-31T22:46:13",
    "ORIGINATOR": "18 SPCS",
    "OBJECT_NAME": "IRIDIUM 33 DEB",
    "OBJECT_ID": "1997-051CZ",
    "CENTER_NAME": "EARTH",
    "REF_FRAME": "TEME",
    "TIME_SYSTEM": "UTC",
    "MEAN_ELEMENT_THEORY": "SGP4",
    "EPOCH": "2022-10-30T12:49:13.749024",
    "MEAN_MOTION": "15.94067609",
    "ECCENTRICITY": "0.00190620",
    "INCLINATION": "86.3856",
    "RA_OF_ASC_NODE": "73.5294",
    "ARG_OF_PERICENTER": "315.8767",
    "MEAN_ANOMALY": "44.0995",
    "EPHEMERIS_TYPE": "0",
    "CLASSIFICATION_TYPE": "U",
    "NORAD_CAT_ID": "34090",
    "ELEMENT_SET_NO": "999",
    "REV_AT_EPOCH": "73646",
    "BSTAR": "0.01695000000000",
    "MEAN_MOTION_DOT": "0.04877322",
    "MEAN_MOTION_DDOT": "0.0374200000000",
    "SEMIMAJOR_AXIS": "6669.051",
    "PERIOD": "90.335",
    "APOAPSIS": "303.628",
    "PERIAPSIS": "278.203",
    "OBJECT_TYPE": "DEBRIS",
    "RCS_SIZE": "SMALL",
    "COUNTRY_CODE": "US",
    "LAUNCH_DATE": "1997-09-14",
    "SITE": "TTMTR",
    "DECAY_DATE": "2022-10-31",
    "FILE": "3638115",
    "GP_ID": "216560492",
    "TLE_LINE0": "0 IRIDIUM 33 DEB",
    "TLE_LINE1": "1 34090U 97051CZ  22303.53418691  .04877322  37420-1  16950-1 0  9997",
    "TLE_LINE2": "2 34090  86.3856  73.5294 0019062 315.8767  44.0995 15.94067609736463"
  },
  {
    "CCSDS_OMM_VERS": "3.0",
    "COMMENT": "GENERATED VIA SPACE-TRACK.ORG API",
    "CREATION_DATE": "2025-11-26T23:16:29",
    "ORIGINATOR": "18 SPCS",
    "OBJECT_NAME": "IRIDIUM 33 DEB",
    "OBJECT_ID": "1997-051DA",
    "CENTER_NAME": "EARTH",
    "REF_FRAME": "TEME",
    "TIME_SYSTEM": "UTC",
    "MEAN_ELEMENT_THEORY": "SGP4",
    "EPOCH": "2025-11-26T18:17:35.453760",
    "MEAN_MOTION": "14.80030674",
    "ECCENTRICITY": "0.00327930",
    "INCLINATION": "86.3417",
    "RA_OF_ASC_NODE": "74.1394",
    "ARG_OF_PERICENTER": "351.5489",
    "MEAN_ANOMALY": "8.5175",
    "EPHEMERIS_TYPE": "0",
    "CLASSIFICATION_TYPE": "U",
    "NORAD_CAT_ID": "34091",
    "ELEMENT_SET_NO": "999",
    "REV_AT_EPOCH": "87630",
    "BSTAR": "0.00571180000000",
    "MEAN_MOTION_DOT": "0.00043869",
    "MEAN_MOTION_DDOT": "0.0000000000000",
    "SEMIMAJOR_AXIS": "7007.364",
    "PERIOD": "97.295",
    "APOAPSIS": "652.209",
    "PERIAPSIS": "606.250",
    "OBJECT_TYPE": "DEBRIS",
    "RCS_SIZE": "SMALL",
    "COUNTRY_CODE": "US",
    "LAUNCH_DATE": "1997-09-14",
    "SITE": "TTMTR",
    "DECAY_DATE": null,
    "FILE": "4903482",
    "GP_ID": "303675009",
    "TLE_LINE0": "0 IRIDIUM 33 DEB",
    "TLE_LINE1": "1 34091U 97051DA  25330.76221590  .00043869  00000-0  57118-2 0  9998",
    "TLE_LINE2": "2 34091  86.3417  74.1394 0032793 351.5489   8.5175 14.80030674876308"
  },
  {
    "CCSDS_OMM_VERS": "3.0",
    "COMMENT": "GENERATED VIA SPACE-TRACK.ORG API",
    "CREATION_DATE": "2009-05-15T11:16:47",
    "ORIGINATOR": "18 SPCS",
    "OBJECT_NAME": "IRIDIUM 33 DEB",
    "OBJECT_ID": "1997-051DB",
    "CENTER_NAME": "EARTH",
    "REF_FRAME": "TEME",
    "TIME_SYSTEM": "UTC",
    "MEAN_ELEMENT_THEORY": "SGP4",
    "EPOCH": "2009-05-13T08:39:59.220576",
    "MEAN_MOTION": "15.29172449",
    "ECCENTRICITY": "0.01405100",
    "INCLINATION": "86.2008",
    "RA_OF_ASC_NODE": "80.7167",
    "ARG_OF_PERICENTER": "46.5601",
    "MEAN_ANOMALY": "314.0428",
    "EPHEMERIS_TYPE": "0",
    "CLASSIFICATION_TYPE": "U",
    "NORAD_CAT_ID": "34092",
    "ELEMENT_SET_NO": "999",
    "REV_AT_EPOCH": "1320",
    "BSTAR": "0.16423000000000",
    "MEAN_MOTION_DOT": "0.07456739",
    "MEAN_MOTION_DDOT": "0.0000000000000",
    "SEMIMAJOR_AXIS": "6856.426",
    "PERIOD": "94.168",
    "APOAPSIS": "574.630",
    "PERIAPSIS": "381.951",
    "OBJECT_TYPE": "DEBRIS",
    "RCS_SIZE": "SMALL",
    "COUNTRY_CODE": "US",
    "LAUNCH_DATE": "1997-09-14",
    "SITE": "TTMTR",
    "DECAY_DATE": "2009-05-16",
    "FILE": "715249",
    "GP_ID": "71236023",
    "TLE_LINE0": "0 IRIDIUM 33 DEB",
    "TLE_LINE1": "1 34092U 97051DB  09133.36110209  .07456739  00000-0  16423+0 0  9994",
    "TLE_LINE2": "2 34092 086.2008 080.7167 0140510 046.5601 314.0428 15.29172449 13208"
  }
]